ATLAS CENTAUR R/B       
1 06155U 72065B   26051.05825985  .00001210  00000+0  16792-3 0  9994
2 06155  35.0020  49.0737 0034247 222.6154 137.1887 14.77631382838658
SL-8 R/B                
1 08459U 75112B   26051.18274537  .00000128  00000+0  50787-4 0  9994
2 08459  74.0596  51.1178 0014926 151.1136 209.0848 14.38193510629353
SL-3 R/B                
1 10114U 77057B   26051.23430494  .00011040  00000+0  23626-3 0  9993
2 10114  97.5747 222.3967 0007155 355.0155   5.1021 15.44957261665630
SEASAT 1                
1 10967U 78064A   26051.06462641  .00000195  00000+0  92901-4 0  9990
2 10967 108.0150  88.5128 0001885 290.6782  69.4161 14.46145600503969
SL-14 R/B               
1 11267U 79011B   26051.20922885  .00000518  00000+0  48589-4 0  9996
2 11267  82.5236 113.1596 0017559 114.1838 246.1219 14.91886060526173
SL-8 R/B                
1 11574U 79089B   26051.19751228  .00000218  00000+0  73824-4 0  9998
2 11574  74.0688 123.4246 0016907 297.8520  62.0923 14.42339271433582
SL-14 R/B               
1 11672U 80005B   26051.21076030  .00000546  00000+0  52723-4 0  9990
2 11672  82.5171 323.8124 0014639 217.4493 142.5707 14.90906802473884
SL-8 R/B                
1 12139U 81003B   26051.18149788  .00012939  00000+0  33934-3 0  9996
2 12139  82.9393 306.2056 0262627 239.5685 117.9364 15.10296472312034
SL-3 R/B                
1 12465U 81046B   26051.26077402  .00010776  00000+0  25440-3 0  9997
2 12465  81.2331 310.6630 0020724  80.0670 280.2911 15.41493842435740
SL-3 R/B                
1 12904U 81103B   26051.21020726  .00004333  00000+0  19309-3 0  9990
2 12904  81.1559 233.9360 0013105 348.4654  11.6275 15.21147842970572
SL-3 R/B                
1 13068U 82013B   26051.22574373  .00004764  00000+0  20740-3 0  9995
2 13068  81.1763 181.2315 0021855 237.4135 122.4987 15.21811518401699
SL-3 R/B                
1 13154U 82039B   26051.22929989  .00001895  00000+0  11412-3 0  9994
2 13154  81.1589 236.0898 0030014  21.5052 338.7426 15.09973077379007
