CCSDS_OMM_VERS = 2.0
CREATION_DATE  = 
ORIGINATOR     = 

OBJECT_NAME    = ATLAS CENTAUR R/B
OBJECT_ID      = 1972-065B
CENTER_NAME    = EARTH
REF_FRAME      = TEME
TIME_SYSTEM    = UTC
MEAN_ELEMENT_THEORY = SGP/SGP4

EPOCH          = 2026-02-20T01:23:53.651040
MEAN_MOTION    = 14.77631382
ECCENTRICITY   = .00342476
INCLINATION    = 35.0020
RA_OF_ASC_NODE = 49.0737
ARG_OF_PERICENTER = 222.6154
MEAN_ANOMALY   = 137.1887

EPHEMERIS_TYPE = 0
CLASSIFICATION_TYPE = U
NORAD_CAT_ID   = 6155
ELEMENT_SET_NO = 999
REV_AT_EPOCH   = 83865
BSTAR          = .16792141E-3
MEAN_MOTION_DOT = .121E-4
MEAN_MOTION_DDOT = 0

CCSDS_OMM_VERS = 2.0
CREATION_DATE  = 
ORIGINATOR     = 

OBJECT_NAME    = SL-8 R/B
OBJECT_ID      = 1975-112B
CENTER_NAME    = EARTH
REF_FRAME      = TEME
TIME_SYSTEM    = UTC
MEAN_ELEMENT_THEORY = SGP/SGP4

EPOCH          = 2026-02-20T04:23:09.199968
MEAN_MOTION    = 14.38193510
ECCENTRICITY   = .00149266
INCLINATION    = 74.0596
RA_OF_ASC_NODE = 51.1178
ARG_OF_PERICENTER = 151.1136
MEAN_ANOMALY   = 209.0848

EPHEMERIS_TYPE = 0
CLASSIFICATION_TYPE = U
NORAD_CAT_ID   = 8459
ELEMENT_SET_NO = 999
REV_AT_EPOCH   = 62935
BSTAR          = .50786998E-4
MEAN_MOTION_DOT = .128E-5
MEAN_MOTION_DDOT = 0

CCSDS_OMM_VERS = 2.0
CREATION_DATE  = 
ORIGINATOR     = 

OBJECT_NAME    = SL-3 R/B
OBJECT_ID      = 1977-057B
CENTER_NAME    = EARTH
REF_FRAME      = TEME
TIME_SYSTEM    = UTC
MEAN_ELEMENT_THEORY = SGP/SGP4

EPOCH          = 2026-02-20T05:37:23.946816
MEAN_MOTION    = 15.44957261
ECCENTRICITY   = .00071551
INCLINATION    = 97.5747
RA_OF_ASC_NODE = 222.3967
ARG_OF_PERICENTER = 355.0155
MEAN_ANOMALY   = 5.1021

EPHEMERIS_TYPE = 0
CLASSIFICATION_TYPE = U
NORAD_CAT_ID   = 10114
ELEMENT_SET_NO = 999
REV_AT_EPOCH   = 66563
BSTAR          = .2362562E-3
MEAN_MOTION_DOT = .1104E-3
MEAN_MOTION_DDOT = 0

CCSDS_OMM_VERS = 2.0
CREATION_DATE  = 
ORIGINATOR     = 

OBJECT_NAME    = SEASAT 1
OBJECT_ID      = 1978-064A
CENTER_NAME    = EARTH
REF_FRAME      = TEME
TIME_SYSTEM    = UTC
MEAN_ELEMENT_THEORY = SGP/SGP4

EPOCH          = 2026-02-20T01:33:03.721824
MEAN_MOTION    = 14.46145600
ECCENTRICITY   = .00018858
INCLINATION    = 108.0150
RA_OF_ASC_NODE = 88.5128
ARG_OF_PERICENTER = 290.6782
MEAN_ANOMALY   = 69.4161

EPHEMERIS_TYPE = 0
CLASSIFICATION_TYPE = U
NORAD_CAT_ID   = 10967
ELEMENT_SET_NO = 999
REV_AT_EPOCH   = 50396
BSTAR          = .92900594E-4
MEAN_MOTION_DOT = .195E-5
MEAN_MOTION_DDOT = 0

CCSDS_OMM_VERS = 2.0
CREATION_DATE  = 
ORIGINATOR     = 

OBJECT_NAME    = SL-14 R/B
OBJECT_ID      = 1979-011B
CENTER_NAME    = EARTH
REF_FRAME      = TEME
TIME_SYSTEM    = UTC
MEAN_ELEMENT_THEORY = SGP/SGP4

EPOCH          = 2026-02-20T05:01:17.372640
MEAN_MOTION    = 14.91886060
ECCENTRICITY   = .00175599
INCLINATION    = 82.5236
RA_OF_ASC_NODE = 113.1596
ARG_OF_PERICENTER = 114.1838
MEAN_ANOMALY   = 246.1219

EPHEMERIS_TYPE = 0
CLASSIFICATION_TYPE = U
NORAD_CAT_ID   = 11267
ELEMENT_SET_NO = 999
REV_AT_EPOCH   = 52617
BSTAR          = .48588864E-4
MEAN_MOTION_DOT = .518E-5
MEAN_MOTION_DDOT = 0

CCSDS_OMM_VERS = 2.0
CREATION_DATE  = 
ORIGINATOR     = 

OBJECT_NAME    = SL-8 R/B
OBJECT_ID      = 1979-089B
CENTER_NAME    = EARTH
REF_FRAME      = TEME
TIME_SYSTEM    = UTC
MEAN_ELEMENT_THEORY = SGP/SGP4

EPOCH          = 2026-02-20T04:44:25.060992
MEAN_MOTION    = 14.42339271
ECCENTRICITY   = .00169074
INCLINATION    = 74.0688
RA_OF_ASC_NODE = 123.4246
ARG_OF_PERICENTER = 297.8520
MEAN_ANOMALY   = 62.0923

EPHEMERIS_TYPE = 0
CLASSIFICATION_TYPE = U
NORAD_CAT_ID   = 11574
ELEMENT_SET_NO = 999
REV_AT_EPOCH   = 43358
BSTAR          = .73823603E-4
MEAN_MOTION_DOT = .218E-5
MEAN_MOTION_DDOT = 0

CCSDS_OMM_VERS = 2.0
CREATION_DATE  = 
ORIGINATOR     = 

OBJECT_NAME    = SL-14 R/B
OBJECT_ID      = 1980-005B
CENTER_NAME    = EARTH
REF_FRAME      = TEME
TIME_SYSTEM    = UTC
MEAN_ELEMENT_THEORY = SGP/SGP4

EPOCH          = 2026-02-20T05:03:29.689920
MEAN_MOTION    = 14.90906802
ECCENTRICITY   = .00146398
INCLINATION    = 82.5171
RA_OF_ASC_NODE = 323.8124
ARG_OF_PERICENTER = 217.4493
MEAN_ANOMALY   = 142.5707

EPHEMERIS_TYPE = 0
CLASSIFICATION_TYPE = U
NORAD_CAT_ID   = 11672
ELEMENT_SET_NO = 999
REV_AT_EPOCH   = 47388
BSTAR          = .52723131E-4
MEAN_MOTION_DOT = .546E-5
MEAN_MOTION_DDOT = 0

CCSDS_OMM_VERS = 2.0
CREATION_DATE  = 
ORIGINATOR     = 

OBJECT_NAME    = SL-8 R/B
OBJECT_ID      = 1981-003B
CENTER_NAME    = EARTH
REF_FRAME      = TEME
TIME_SYSTEM    = UTC
MEAN_ELEMENT_THEORY = SGP/SGP4

EPOCH          = 2026-02-20T04:21:21.416832
MEAN_MOTION    = 15.10296472
ECCENTRICITY   = .02626278
INCLINATION    = 82.9393
RA_OF_ASC_NODE = 306.2056
ARG_OF_PERICENTER = 239.5685
MEAN_ANOMALY   = 117.9364

EPHEMERIS_TYPE = 0
CLASSIFICATION_TYPE = U
NORAD_CAT_ID   = 12139
ELEMENT_SET_NO = 999
REV_AT_EPOCH   = 31203
BSTAR          = .33934031E-3
MEAN_MOTION_DOT = .12939E-3
MEAN_MOTION_DDOT = 0

CCSDS_OMM_VERS = 2.0
CREATION_DATE  = 
ORIGINATOR     = 

OBJECT_NAME    = SL-3 R/B
OBJECT_ID      = 1981-046B
CENTER_NAME    = EARTH
REF_FRAME      = TEME
TIME_SYSTEM    = UTC
MEAN_ELEMENT_THEORY = SGP/SGP4

EPOCH          = 2026-02-20T06:15:30.875328
MEAN_MOTION    = 15.41493842
ECCENTRICITY   = .00207244
INCLINATION    = 81.2331
RA_OF_ASC_NODE = 310.6630
ARG_OF_PERICENTER = 80.0670
MEAN_ANOMALY   = 280.2911

EPHEMERIS_TYPE = 0
CLASSIFICATION_TYPE = U
NORAD_CAT_ID   = 12465
ELEMENT_SET_NO = 999
REV_AT_EPOCH   = 43574
BSTAR          = .25439667E-3
MEAN_MOTION_DOT = .10776E-3
MEAN_MOTION_DDOT = 0

CCSDS_OMM_VERS = 2.0
CREATION_DATE  = 
ORIGINATOR     = 

OBJECT_NAME    = SL-3 R/B
OBJECT_ID      = 1981-103B
CENTER_NAME    = EARTH
REF_FRAME      = TEME
TIME_SYSTEM    = UTC
MEAN_ELEMENT_THEORY = SGP/SGP4

EPOCH          = 2026-02-20T05:02:41.907264
MEAN_MOTION    = 15.21147842
ECCENTRICITY   = .00131052
INCLINATION    = 81.1559
RA_OF_ASC_NODE = 233.9360
ARG_OF_PERICENTER = 348.4654
MEAN_ANOMALY   = 11.6275

EPHEMERIS_TYPE = 0
CLASSIFICATION_TYPE = U
NORAD_CAT_ID   = 12904
ELEMENT_SET_NO = 999
REV_AT_EPOCH   = 97057
BSTAR          = .1930903E-3
MEAN_MOTION_DOT = .4333E-4
MEAN_MOTION_DDOT = 0

CCSDS_OMM_VERS = 2.0
CREATION_DATE  = 
ORIGINATOR     = 

OBJECT_NAME    = SL-3 R/B
OBJECT_ID      = 1982-013B
CENTER_NAME    = EARTH
REF_FRAME      = TEME
TIME_SYSTEM    = UTC
MEAN_ELEMENT_THEORY = SGP/SGP4

EPOCH          = 2026-02-20T05:25:04.258272
MEAN_MOTION    = 15.21811518
ECCENTRICITY   = .00218552
INCLINATION    = 81.1763
RA_OF_ASC_NODE = 181.2315
ARG_OF_PERICENTER = 237.4135
MEAN_ANOMALY   = 122.4987

EPHEMERIS_TYPE = 0
CLASSIFICATION_TYPE = U
NORAD_CAT_ID   = 13068
ELEMENT_SET_NO = 999
REV_AT_EPOCH   = 40169
BSTAR          = .20740013E-3
MEAN_MOTION_DOT = .4764E-4
MEAN_MOTION_DDOT = 0

CCSDS_OMM_VERS = 2.0
CREATION_DATE  = 
ORIGINATOR     = 

OBJECT_NAME    = SL-3 R/B
OBJECT_ID      = 1982-039B
CENTER_NAME    = EARTH
REF_FRAME      = TEME
TIME_SYSTEM    = UTC
MEAN_ELEMENT_THEORY = SGP/SGP4

EPOCH          = 2026-02-20T05:30:11.510496
MEAN_MOTION    = 15.09973077
ECCENTRICITY   = .00300147
INCLINATION    = 81.1589
RA_OF_ASC_NODE = 236.0898
ARG_OF_PERICENTER = 21.5052
MEAN_ANOMALY   = 338.7426

EPHEMERIS_TYPE = 0
CLASSIFICATION_TYPE = U
NORAD_CAT_ID   = 13154
ELEMENT_SET_NO = 999
REV_AT_EPOCH   = 37900
BSTAR          = .11412329E-3
MEAN_MOTION_DOT = .1895E-4
MEAN_MOTION_DDOT = 0

